NORAD_CAT_ID,OBJECT_NAME,OBJECT_TYPE,EPOCH,MEAN_MOTION,ECCENTRICITY,INCLINATION,RA_OF_ASC_NODE,ARG_OF_PERICENTER,MEAN_ANOMALY,BSTAR,MEAN_MOTION_DOT,MEAN_MOTION_DDOT,TLE_LINE0,TLE_LINE1,TLE_LINE2,SEMIMAJOR_AXIS,PERIOD,APOGEE,PERIGEE,DECAYED
55658.0,STARLINK-5307,PAYLOAD,2023-12-21 14:54:55,14.98333031,0.0002646,70.0003,64.2936,277.5372,82.5486,0.00022337,2.573e-05,0.0,0 STARLINK-5307,1 55658U 23021AG  23355.62147024  .00002573  00000-0  22337-3 0  9998,2 55658  70.0003  64.2936 0002646 277.5372  82.5486 14.98333031 47607,6950.184,96.107,573.888,570.209,0.0
55658.0,STARLINK-5307,PAYLOAD,2023-12-22 11:44:40,14.98326993,0.000254,70.0018,62.1104,247.5494,112.5396,5.7049e-05,5.88e-06,0.0,0 STARLINK-5307,1 55658U 23021AG  23356.48935795  .00000588  00000-0  57049-4 0  9996,2 55658  70.0018  62.1104 0002540 247.5494 112.5396 14.98326993 47436,6950.202,96.107,573.833,570.302,0.0
55658.0,STARLINK-5307,PAYLOAD,2023-12-22 13:20:48,14.98323889,0.0002413,70.0019,61.9417,238.2813,121.8111,2.4968e-05,2.05e-06,0.0,0 STARLINK-5307,1 55658U 23021AG  23356.55612053  .00000205  00000-0  24968-4 0  9993,2 55658  70.0019  61.9417 0002413 238.2813 121.8111 14.98323889 47745,6950.212,96.107,573.754,570.4,0.0
55658.0,STARLINK-5307,PAYLOAD,2023-12-23 11:46:41,14.98332369,0.0002606,70.0005,59.5819,261.106,98.9804,-2.8785e-05,-4.36e-06,0.0,0 STARLINK-5307,1 55658U 23021AG  23357.49075626 -.00000436  00000-0 -28785-4 0  9995,2 55658  70.0005  59.5819 0002606 261.1060  98.9804 14.98332369 47580,6950.186,96.107,573.862,570.239,0.0
55658.0,STARLINK-5307,PAYLOAD,2023-12-23 13:22:49,14.98333474,0.0002415,70.0013,59.4151,256.0095,104.0795,-4.5051e-05,-6.3e-06,0.0,0 STARLINK-5307,1 55658U 23021AG  23357.55751599 -.00000630  00000-0 -45051-4 0  9993,2 55658  70.0013  59.4151 0002415 256.0095 104.0795 14.98333474 47896,6950.182,96.107,573.726,570.369,0.0
55658.0,STARLINK-5307,PAYLOAD,2023-12-24 11:48:41,14.98331945,0.0002617,70.0006,57.0571,258.4395,101.647,7.0023e-05,7.43e-06,0.0,0 STARLINK-5307,1 55658U 23021AG  23358.49215204  .00000743  00000-0  70023-4 0  9995,2 55658  70.0006  57.0571 0002617 258.4395 101.6470 14.98331945 47738,6950.187,96.107,573.871,570.233,0.0
55658.0,STARLINK-5307,PAYLOAD,2023-12-24 13:24:49,14.98332794,0.0002614,70.0006,56.8888,258.3,101.7866,7.7659e-05,8.34e-06,0.0,0 STARLINK-5307,1 55658U 23021AG  23358.55891115  .00000834  00000-0  77659-4 0  9996,2 55658  70.0006  56.8888 0002614 258.3000 101.7866 14.98332794 48043,6950.184,96.107,573.866,570.232,0.0
55658.0,STARLINK-5307,PAYLOAD,2023-12-25 11:50:43,14.98328749,0.0002562,70.0009,54.5325,252.7109,107.377,8.5902e-06,1e-07,0.0,0 STARLINK-5307,1 55658U 23021AG  23359.49355479  .00000010  00000-0  85902-5 0  9995,2 55658  70.0009  54.5325 0002562 252.7109 107.3770 14.98328749 47889,6950.197,96.107,573.842,570.281,0.0
55658.0,STARLINK-5307,PAYLOAD,2023-12-25 13:26:51,14.98330217,0.0002647,70.0005,54.3637,260.6103,99.4757,1.4331e-05,7.8e-07,0.0,0 STARLINK-5307,1 55658U 23021AG  23359.56031392  .00000078  00000-0  14331-4 0  9999,2 55658  70.0005  54.3637 0002647 260.6103  99.4757 14.98330217 48199,6950.192,96.107,573.897,570.218,0.0
55658.0,STARLINK-5307,PAYLOAD,2023-12-26 11:52:44,14.98328483,0.0002706,70.0005,52.0072,262.6733,97.4118,-3.1476e-05,-4.68e-06,0.0,0 STARLINK-5307,1 55658U 23021AG  23360.49495579 -.00000468  00000-0 -31476-4 0  9998,2 55658  70.0005  52.0072 0002706 262.6733  97.4118 14.98328483 48038,6950.198,96.107,573.943,570.182,0.0
55658.0,STARLINK-5307,PAYLOAD,2023-12-26 13:28:52,14.98328459,0.0002781,70.0004,51.839,264.5971,95.4871,-1.3219e-05,-2.51e-06,0.0,0 STARLINK-5307,1 55658U 23021AG  23360.56171556 -.00000251  00000-0 -13219-4 0  9997,2 55658  70.0004  51.8390 0002781 264.5971  95.4871 14.98328459 48346,6950.198,96.107,573.996,570.13,0.0
55658.0,STARLINK-5307,PAYLOAD,2023-12-27 11:54:43,14.98340737,0.0002784,70.0002,49.482,262.4918,97.5925,0.0001451,1.639e-05,0.0,0 STARLINK-5307,1 55658U 23021AG  23361.49634143  .00001639  00000-0  14510-3 0  9999,2 55658  70.0002  49.4820 0002784 262.4918  97.5925 14.98340737 48184,6950.16,96.106,573.96,570.09,0.0
55658.0,STARLINK-5307,PAYLOAD,2023-12-27 13:30:51,14.9834183,0.0002788,70.0002,49.3137,263.9891,96.0951,0.00015498,1.757e-05,0.0,0 STARLINK-5307,1 55658U 23021AG  23361.56310025  .00001757  00000-0  15498-3 0  9994,2 55658  70.0002  49.3137 0002788 263.9891  96.0951 14.98341830 48496,6950.156,96.106,573.959,570.084,0.0
55658.0,STARLINK-5307,PAYLOAD,2023-12-28 03:56:05,14.98332639,0.0002157,70.0025,47.8027,254.8495,105.2426,4.1406e-05,4.01e-06,0.0,0 STARLINK-5307,1 55658U 23021AG  23362.16394901  .00000401  00000-0  41406-4 0  9990,2 55658  70.0025  47.8027 0002157 254.8495 105.2426 14.98332639 48285,6950.185,96.107,573.549,570.551,0.0
55658.0,STARLINK-5307,PAYLOAD,2023-12-28 11:56:45,14.98325941,0.0002809,70.0,46.9572,261.5044,98.5797,3.6213e-06,-5e-07,0.0,0 STARLINK-5307,1 55658U 23021AG  23362.49775321 -.00000050  00000-0  36213-5 0  9997,2 55658  70.0000  46.9572 0002809 261.5044  98.5797 14.98325941 48331,6950.205,96.107,574.023,570.118,0.0
55658.0,STARLINK-5307,PAYLOAD,2023-12-28 13:32:53,14.98327845,0.0002868,69.9996,46.7878,266.0817,94.0014,2.1028e-05,1.58e-06,0.0,0 STARLINK-5307,1 55658U 23021AG  23362.56451173  .00000158  00000-0  21028-4 0  9996,2 55658  69.9996  46.7878 0002868 266.0817  94.0014 14.98327845 48644,6950.2,96.107,574.058,570.071,0.0
55658.0,STARLINK-5307,PAYLOAD,2023-12-29 03:58:04,14.98358392,0.000221,70.0024,45.2745,262.7453,97.3455,0.00024613,2.847e-05,0.0,0 STARLINK-5307,1 55658U 23021AG  23363.16532654  .00002847  00000-0  24613-3 0  9996,2 55658  70.0024  45.2745 0002210 262.7453  97.3455 14.98358392 48439,6950.105,96.105,573.506,570.434,0.0
55658.0,STARLINK-5307,PAYLOAD,2023-12-29 11:58:43,14.983614,0.0002634,70.0005,44.4322,271.7957,88.29,0.00020567,2.364e-05,0.0,0 STARLINK-5307,1 55658U 23021AG  23363.49911995  .00002364  00000-0  20567-3 0  9999,2 55658  70.0005  44.4322 0002634 271.7957  88.2900 14.98361400 48785,6950.096,96.105,573.791,570.13,0.0
55658.0,STARLINK-5307,PAYLOAD,2023-12-30 04:00:06,14.98320561,0.0002727,70.0002,42.7491,262.6575,97.4274,-5.8829e-05,-7.95e-06,0.0,0 STARLINK-5307,1 55658U 23021AG  23364.16674598 -.00000795  00000-0 -58829-4 0  9990,2 55658  70.0002  42.7491 0002727 262.6575  97.4274 14.98320561 48585,6950.222,96.108,573.982,570.192,0.0
55658.0,STARLINK-5307,PAYLOAD,2023-12-30 12:00:47,14.98321957,0.0002747,69.9999,41.9066,262.8804,97.2043,-6.2361e-05,-8.37e-06,0.0,0 STARLINK-5307,1 55658U 23021AG  23364.50054559 -.00000837  00000-0 -62361-4 0  9990,2 55658  69.9999  41.9066 0002747 262.8804  97.2043 14.98321957 48936,6950.218,96.108,573.992,570.174,0.0
55658.0,STARLINK-5307,PAYLOAD,2023-12-31 04:02:08,14.98330318,0.0002579,70.0004,40.2242,264.3068,95.7797,-0.00037177,-4.526e-05,0.0,0 STARLINK-5307,1 55658U 23021AG  23365.16815270 -.00004526  00000-0 -37177-3 0  9993,2 55658  70.0004  40.2242 0002579 264.3068  95.7797 14.98330318 48734,6950.192,96.107,573.849,570.264,0.0
55658.0,STARLINK-5307,PAYLOAD,2023-12-31 12:02:49,14.98325086,0.0002704,70.0002,39.3824,266.8264,93.2586,-0.00038697,-4.706e-05,0.0,0 STARLINK-5307,1 55658U 23021AG  23365.50195729 -.00004706  00000-0 -38697-3 0  9999,2 55658  70.0002  39.3824 0002704 266.8264  93.2586 14.98325086 49086,6950.208,96.107,573.952,570.194,0.0
55658.0,STARLINK-5307,PAYLOAD,2024-01-01 04:04:09,14.98313775,0.0003027,69.9994,37.6982,270.0796,90.0016,3.3879e-05,3.11e-06,0.0,0 STARLINK-5307,1 55658U 23021AG  24001.16955639  .00000311  00000-0  33879-4 0  9997,2 55658  69.9994  37.6982 0003027 270.0796  90.0016 14.98313775 48887,6950.243,96.108,574.212,570.004,0.0
55658.0,STARLINK-5307,PAYLOAD,2024-01-01 12:04:50,14.98316447,0.0003003,69.9995,36.8567,269.7814,90.3001,6.3136e-05,6.6e-06,0.0,0 STARLINK-5307,1 55658U 23021AG  24001.50335757  .00000660  00000-0  63136-4 0  9994,2 55658  69.9995  36.8567 0003003 269.7814  90.3001 14.98316447 49234,6950.235,96.108,574.187,570.013,0.0
55658.0,STARLINK-5307,PAYLOAD,2024-01-02 04:06:10,14.98321757,0.0003166,69.9993,35.1727,271.0786,89.001,0.00018109,2.068e-05,0.0,0 STARLINK-5307,1 55658U 23021AG  24002.17095584  .00002068  00000-0  18109-3 0  9992,2 55658  69.9993  35.1727 0003166 271.0786  89.0010 14.98321757 49039,6950.218,96.108,574.284,569.883,0.0
55658.0,STARLINK-5307,PAYLOAD,2024-01-02 12:06:50,14.98328135,0.0003095,69.9994,34.3309,270.6298,89.4506,0.00023876,2.757e-05,0.0,0 STARLINK-5307,1 55658U 23021AG  24002.50475173  .00002757  00000-0  23876-3 0  9997,2 55658  69.9994  34.3309 0003095 270.6298  89.4506 14.98328135 49380,6950.199,96.107,574.215,569.913,0.0
55658.0,STARLINK-5307,PAYLOAD,2024-01-03 12:08:51,14.98334773,0.0002946,69.9996,31.806,269.2576,90.8246,0.00013499,1.518e-05,0.0,0 STARLINK-5307,1 55658U 23021AG  24003.50615039  .00001518  00000-0  13499-3 0  9999,2 55658  69.9996  31.8060 0002946 269.2576  90.8246 14.98334773 49231,6950.178,96.107,574.091,569.996,0.0
55658.0,STARLINK-5307,PAYLOAD,2024-01-04 12:10:52,14.98334053,0.0002735,70.0001,29.2813,269.4061,90.6785,-1.5076e-05,-2.73e-06,0.0,0 STARLINK-5307,1 55658U 23021AG  24004.50755203 -.00000273  00000-0 -15076-4 0  9991,2 55658  70.0001  29.2813 0002735 269.4061  90.6785 14.98334053 49681,6950.18,96.107,573.946,570.144,0.0
55658.0,STARLINK-5307,PAYLOAD,2024-01-05 10:36:45,14.98328584,0.0002655,70.0002,26.925,262.2167,97.869,-6.9398e-05,-9.21e-06,0.0,0 STARLINK-5307,1 55658U 23021AG  24005.44219509 -.00000921  00000-0 -69398-4 0  9995,2 55658  70.0002  26.9250 0002655 262.2167  97.8690 14.98328584 49529,6950.197,96.107,573.908,570.217,0.0
55658.0,STARLINK-5307,PAYLOAD,2024-01-06 04:14:13,14.98332992,0.0002811,69.9997,25.0725,266.1388,93.945,2.968e-05,2.61e-06,0.0,0 STARLINK-5307,1 55658U 23021AG  24006.17654858  .00000261  00000-0  29680-4 0  9991,2 55658  69.9997  25.0725 0002811 266.1388  93.9450 14.98332992 49639,6950.184,96.107,574.002,570.095,0.0
